{
  "type": "FeatureCollection",
  "features": [
    {
      "type": "Feature",
      "properties": {
        "norad_id": 37094,
        "name": "COSMOS 2251 DEB",
        "group": "cosmos-2251-debris",
        "lat": 17.67354469684993,
        "lon": 132.47959812165035,
        "alt_km": 750.5398865873258,
        "timestamp": "2025-12-09T09:46:48.043286+00:00",
        "meta_object_name": "COSMOS 2251 DEB",
        "meta_object_id": "1993-036BFQ",
        "meta_epoch": "2025-12-06T16:34:06.652128",
        "meta_mean_motion": 14.37775632,
        "meta_eccentricity": 0.00842027,
        "meta_inclination": 74.1085,
        "meta_ra_of_asc_node": 132.2507,
        "meta_arg_of_pericenter": 99.9483,
        "meta_mean_anomaly": 261.1188,
        "meta_ephemeris_type": 0,
        "meta_classification_type": "U",
        "meta_norad_cat_id": 37094,
        "meta_element_set_no": 999,
        "meta_rev_at_epoch": 84419,
        "meta_bstar": 0.0017371356,
        "meta_mean_motion_dot": 5.428e-05,
        "meta_mean_motion_ddot": 0,
        "tle_line1": "1 37094U 93036BFQ 25340.69035477  .00005428  00000+0  17371-2 0  9998",
        "tle_line2": "2 37094  74.1085 132.2507 0084202  99.9483 261.1188 14.37775632844196"
      },
      "geometry": {
        "type": "Point",
        "coordinates": [
          132.47959812165035,
          17.67354469684993
        ]
      }
    },
    {
      "type": "Feature",
      "properties": {
        "norad_id": 37095,
        "name": "COSMOS 2251 DEB",
        "group": "cosmos-2251-debris",
        "lat": 2.6008603661685066,
        "lon": -163.46377917619824,
        "alt_km": 927.3643266020936,
        "timestamp": "2025-12-09T09:46:48.043296+00:00",
        "meta_object_name": "COSMOS 2251 DEB",
        "meta_object_id": "1993-036BFR",
        "meta_epoch": "2025-12-05T08:14:56.192352",
        "meta_mean_motion": 14.03341959,
        "meta_eccentricity": 0.01953957,
        "meta_inclination": 73.8477,
        "meta_ra_of_asc_node": 202.9366,
        "meta_arg_of_pericenter": 261.9904,
        "meta_mean_anomaly": 95.9019,
        "meta_ephemeris_type": 0,
        "meta_classification_type": "U",
        "meta_norad_cat_id": 37095,
        "meta_element_set_no": 999,
        "meta_rev_at_epoch": 62532,
        "meta_bstar": 0.0025687664,
        "meta_mean_motion_dot": 4.727e-05,
        "meta_mean_motion_ddot": 0,
        "tle_line1": "1 37095U 93036BFR 25339.34370593  .00004727  00000+0  25688-2 0  9991",
        "tle_line2": "2 37095  73.8477 202.9366 0195395 261.9904  95.9019 14.03341959625323"
      },
      "geometry": {
        "type": "Point",
        "coordinates": [
          -163.46377917619824,
          2.6008603661685066
        ]
      }
    },
    {
      "type": "Feature",
      "properties": {
        "norad_id": 37108,
        "name": "COSMOS 2251 DEB",
        "group": "cosmos-2251-debris",
        "lat": -47.483791967465834,
        "lon": 68.54723324991905,
        "alt_km": 814.8688536625095,
        "timestamp": "2025-12-09T09:46:48.043307+00:00",
        "meta_object_name": "COSMOS 2251 DEB",
        "meta_object_id": "1993-036BGE",
        "meta_epoch": "2025-12-08T17:21:24.429024",
        "meta_mean_motion": 14.41240168,
        "meta_eccentricity": 0.00918255,
        "meta_inclination": 74.0439,
        "meta_ra_of_asc_node": 87.996,
        "meta_arg_of_pericenter": 165.5632,
        "meta_mean_anomaly": 194.8181,
        "meta_ephemeris_type": 0,
        "meta_classification_type": "U",
        "meta_norad_cat_id": 37108,
        "meta_element_set_no": 999,
        "meta_rev_at_epoch": 85449,
        "meta_bstar": 0.002465693,
        "meta_mean_motion_dot": 8.357e-05,
        "meta_mean_motion_ddot": 0,
        "tle_line1": "1 37108U 93036BGE 25342.72319941  .00008357  00000+0  24657-2 0  9990",
        "tle_line2": "2 37108  74.0439  87.9960 0091825 165.5632 194.8181 14.41240168854493"
      },
      "geometry": {
        "type": "Point",
        "coordinates": [
          68.54723324991905,
          -47.483791967465834
        ]
      }
    },
    {
      "type": "Feature",
      "properties": {
        "norad_id": 37126,
        "name": "COSMOS 2251 DEB",
        "group": "cosmos-2251-debris",
        "lat": -5.9219756982228,
        "lon": -177.22892996835114,
        "alt_km": 602.8826443713833,
        "timestamp": "2025-12-09T09:46:48.043317+00:00",
        "meta_object_name": "COSMOS 2251 DEB",
        "meta_object_id": "1993-036BGY",
        "meta_epoch": "2025-12-07T08:01:44.004576",
        "meta_mean_motion": 14.73044037,
        "meta_eccentricity": 0.01233958,
        "meta_inclination": 73.952,
        "meta_ra_of_asc_node": 5.1188,
        "meta_arg_of_pericenter": 244.4647,
        "meta_mean_anomaly": 114.3726,
        "meta_ephemeris_type": 0,
        "meta_classification_type": "U",
        "meta_norad_cat_id": 37126,
        "meta_element_set_no": 999,
        "meta_rev_at_epoch": 8019,
        "meta_bstar": 0.00045541801,
        "meta_mean_motion_dot": 3.268e-05,
        "meta_mean_motion_ddot": 0,
        "tle_line1": "1 37126U 93036BGY 25341.33453709  .00003268  00000+0  45542-3 0  9990",
        "tle_line2": "2 37126  73.9520   5.1188 0123395 244.4647 114.3726 14.73044037 80199"
      },
      "geometry": {
        "type": "Point",
        "coordinates": [
          -177.22892996835114,
          -5.9219756982228
        ]
      }
    },
    {
      "type": "Feature",
      "properties": {
        "norad_id": 37132,
        "name": "COSMOS 2251 DEB",
        "group": "cosmos-2251-debris",
        "lat": -4.126006723866075,
        "lon": 61.782499310362084,
        "alt_km": 662.8624235758116,
        "timestamp": "2025-12-09T09:46:48.043328+00:00",
        "meta_object_name": "COSMOS 2251 DEB",
        "meta_object_id": "1993-036BHE",
        "meta_epoch": "2025-12-07T11:27:27.762624",
        "meta_mean_motion": 14.77705967,
        "meta_eccentricity": 0.0039737,
        "meta_inclination": 74.0029,
        "meta_ra_of_asc_node": 244.3909,
        "meta_arg_of_pericenter": 41.7313,
        "meta_mean_anomaly": 318.688,
        "meta_ephemeris_type": 0,
        "meta_classification_type": "U",
        "meta_norad_cat_id": 37132,
        "meta_element_set_no": 999,
        "meta_rev_at_epoch": 62338,
        "meta_bstar": 0.0017835716,
        "meta_mean_motion_dot": 0.00012942,
        "meta_mean_motion_ddot": 0,
        "tle_line1": "1 37132U 93036BHE 25341.47740466  .00012942  00000+0  17836-2 0  9994",
        "tle_line2": "2 37132  74.0029 244.3909 0039737  41.7313 318.6880 14.77705967623388"
      },
      "geometry": {
        "type": "Point",
        "coordinates": [
          61.782499310362084,
          -4.126006723866075
        ]
      }
    },
    {
      "type": "Feature",
      "properties": {
        "norad_id": 37270,
        "name": "COSMOS 2251 DEB",
        "group": "cosmos-2251-debris",
        "lat": -46.39996598805334,
        "lon": -36.29824264303203,
        "alt_km": 820.8854158011982,
        "timestamp": "2025-12-09T09:46:48.043338+00:00",
        "meta_object_name": "COSMOS 2251 DEB",
        "meta_object_id": "1993-036BHJ",
        "meta_epoch": "2025-12-06T23:44:09.019392",
        "meta_mean_motion": 13.59708116,
        "meta_eccentricity": 0.03977945,
        "meta_inclination": 73.9304,
        "meta_ra_of_asc_node": 345.2655,
        "meta_arg_of_pericenter": 358.2371,
        "meta_mean_anomaly": 1.731,
        "meta_ephemeris_type": 0,
        "meta_classification_type": "U",
        "meta_norad_cat_id": 37270,
        "meta_element_set_no": 999,
        "meta_rev_at_epoch": 76991,
        "meta_bstar": 0.0060698053,
        "meta_mean_motion_dot": 7.585e-05,
        "meta_mean_motion_ddot": 0,
        "tle_line1": "1 37270U 93036BHJ 25340.98899328  .00007585  00000+0  60698-2 0  9995",
        "tle_line2": "2 37270  73.9304 345.2655 0397794 358.2371   1.7310 13.59708116769910"
      },
      "geometry": {
        "type": "Point",
        "coordinates": [
          -36.29824264303203,
          -46.39996598805334
        ]
      }
    },
    {
      "type": "Feature",
      "properties": {
        "norad_id": 37278,
        "name": "COSMOS 2251 DEB",
        "group": "cosmos-2251-debris",
        "lat": 31.869701047901504,
        "lon": 5.7384549186154326,
        "alt_km": 1014.7073377410106,
        "timestamp": "2025-12-09T09:46:48.043349+00:00",
        "meta_object_name": "COSMOS 2251 DEB",
        "meta_object_id": "1993-036BHS",
        "meta_epoch": "2025-12-04T09:26:36.152736",
        "meta_mean_motion": 14.15029915,
        "meta_eccentricity": 0.029998,
        "meta_inclination": 73.7864,
        "meta_ra_of_asc_node": 4.3592,
        "meta_arg_of_pericenter": 188.2556,
        "meta_mean_anomaly": 234.4903,
        "meta_ephemeris_type": 0,
        "meta_classification_type": "U",
        "meta_norad_cat_id": 37278,
        "meta_element_set_no": 999,
        "meta_rev_at_epoch": 63711,
        "meta_bstar": 0.0023061,
        "meta_mean_motion_dot": 6.884e-05,
        "meta_mean_motion_ddot": 0,
        "tle_line1": "1 37278U 93036BHS 25338.39347399  .00006884  00000+0  23061-2 0  9995",
        "tle_line2": "2 37278  73.7864   4.3592 0299980 188.2556 234.4903 14.15029915637119"
      },
      "geometry": {
        "type": "Point",
        "coordinates": [
          5.7384549186154326,
          31.869701047901504
        ]
      }
    }
  ]
}